NORAD_CAT_ID,OBJECT_NAME,OBJECT_TYPE,EPOCH,MEAN_MOTION,ECCENTRICITY,INCLINATION,RA_OF_ASC_NODE,ARG_OF_PERICENTER,MEAN_ANOMALY,BSTAR,MEAN_MOTION_DOT,MEAN_MOTION_DDOT,TLE_LINE0,TLE_LINE1,TLE_LINE2,SEMIMAJOR_AXIS,PERIOD,APOGEE,PERIGEE,DECAYED
53732.0,STARLINK-4661,PAYLOAD,2023-06-15 03:05:13,15.08840042,8.55e-05,53.2172,56.9135,89.5488,270.5602,6.3636e-05,7.25e-06,0.0,0 STARLINK-4661,1 53732U 22107AJ  23166.12863280  .00000725  00000-0  63636-4 0  9992,2 53732  53.2172  56.9135 0000855  89.5488 270.5602 15.08840042 43800,6917.88,95.438,540.337,539.154,0.0
53732.0,STARLINK-4661,PAYLOAD,2023-06-15 15:48:19,15.08836838,0.0001142,53.218,54.5353,92.1479,267.9644,1.9221e-05,1.8e-07,0.0,0 STARLINK-4661,1 53732U 22107AJ  23166.65855828  .00000018  00000-0  19221-4 0  9995,2 53732  53.2180  54.5353 0001142  92.1479 267.9644 15.08836838 43887,6917.89,95.438,540.545,538.965,0.0
53732.0,STARLINK-4661,PAYLOAD,2023-06-16 01:20:37,15.0884455,0.0001016,53.2174,52.7517,90.09,270.0209,3.9158e-05,3.36e-06,0.0,0 STARLINK-4661,1 53732U 22107AJ  23167.05599294  .00000336  00000-0  39158-4 0  9996,2 53732  53.2174  52.7517 0001016  90.0900 270.0209 15.08844550 43341,6917.866,95.437,540.434,539.029,0.0
53732.0,STARLINK-4661,PAYLOAD,2023-06-16 09:17:33,15.08845383,0.0001022,53.218,51.2644,84.1478,275.9631,5.488e-05,5.86e-06,0.0,0 STARLINK-4661,1 53732U 22107AJ  23167.38719126  .00000586  00000-0  54880-4 0  9996,2 53732  53.2180  51.2644 0001022  84.1478 275.9631 15.08845383 43993,6917.864,95.437,540.436,539.022,0.0
53732.0,STARLINK-4661,PAYLOAD,2023-06-16 15:39:05,15.08841753,9.51e-05,53.2178,50.0748,90.7264,269.3837,0.00011124,1.483e-05,0.0,0 STARLINK-4661,1 53732U 22107AJ  23167.65215201  .00001483  00000-0  11124-3 0  9991,2 53732  53.2178  50.0748 0000951  90.7264 269.3837 15.08841753 44036,6917.875,95.437,540.398,539.082,0.0
53732.0,STARLINK-4661,PAYLOAD,2023-06-17 01:11:23,15.08854382,9.61e-05,53.2169,48.2907,84.8912,275.219,0.00012267,1.666e-05,0.0,0 STARLINK-4661,1 53732U 22107AJ  23168.04958260  .00001666  00000-0  12267-3 0  9996,2 53732  53.2169  48.2907 0000961  84.8912 275.2190 15.08854382 43496,6917.836,95.437,540.366,539.037,0.0
53732.0,STARLINK-4661,PAYLOAD,2023-06-17 09:08:21,15.08826432,0.0001718,53.2181,46.8001,84.4943,275.6245,-3.9507e-05,-9.17e-06,0.0,0 STARLINK-4661,1 53732U 22107AJ  23168.38080830 -.00000917  00000-0 -39507-4 0  9999,2 53732  53.2181  46.8001 0001718  84.4943 275.6245 15.08826432 43546,6917.922,95.438,540.975,538.598,0.0
53732.0,STARLINK-4661,PAYLOAD,2023-06-17 21:51:27,15.08819767,0.000107,53.2172,44.4263,73.1243,286.9867,-0.00010154,-1.902e-05,0.0,0 STARLINK-4661,1 53732U 22107AJ  23168.91073745 -.00001902  00000-0 -10154-3 0  9996,2 53732  53.2172  44.4263 0001070  73.1243 286.9867 15.08819767 44223,6917.942,95.439,540.547,539.067,0.0
53732.0,STARLINK-4661,PAYLOAD,2023-06-18 08:59:09,15.08833858,0.0001121,53.2181,42.3453,72.3851,287.7263,-2.5761e-05,-6.98e-06,0.0,0 STARLINK-4661,1 53732U 22107AJ  23169.37441040 -.00000698  00000-0 -25761-4 0  9996,2 53732  53.2181  42.3453 0001121  72.3851 287.7263 15.08833858 43690,6917.899,95.438,540.54,538.989,0.0
53732.0,STARLINK-4661,PAYLOAD,2023-06-18 15:20:41,15.08831476,0.000106,53.2176,41.1545,66.1539,293.9564,2.0989e-05,4.6e-07,0.0,0 STARLINK-4661,1 53732U 22107AJ  23169.63936919  .00000046  00000-0  20989-4 0  9991,2 53732  53.2176  41.1545 0001060  66.1539 293.9564 15.08831476 44338,6917.906,95.438,540.505,539.038,0.0
53732.0,STARLINK-4661,PAYLOAD,2023-06-19 00:52:59,15.08843818,0.000118,53.2167,39.3715,60.9166,299.1945,0.00019464,2.812e-05,0.0,0 STARLINK-4661,1 53732U 22107AJ  23170.03680539  .00002812  00000-0  19464-3 0  9999,2 53732  53.2167  39.3715 0001180  60.9166 299.1945 15.08843818 43790,6917.869,95.437,540.55,538.917,0.0
53732.0,STARLINK-4661,PAYLOAD,2023-06-19 08:49:55,15.08850215,0.0001095,53.2167,37.884,68.2892,291.8217,0.00028017,4.175e-05,0.0,0 STARLINK-4661,1 53732U 22107AJ  23170.36800286  .00004175  00000-0  28017-3 0  9996,2 53732  53.2167  37.8840 0001095  68.2892 291.8217 15.08850215 44447,6917.849,95.437,540.472,538.957,0.0
53732.0,STARLINK-4661,PAYLOAD,2023-06-20 00:43:46,15.0886579,0.0001113,53.2168,34.9099,64.2392,295.8715,0.00066376,0.00010299,0.0,0 STARLINK-4661,1 53732U 22107AJ  23171.03039933  .00010299  00000-0  66376-3 0  9998,2 53732  53.2168  34.9099 0001113  64.2392 295.8715 15.08865790 43949,6917.802,95.436,540.437,538.897,0.0
53732.0,STARLINK-4661,PAYLOAD,2023-06-20 15:02:14,15.08850886,8.95e-05,53.2159,32.233,77.9883,282.1209,8.2059e-05,1.019e-05,0.0,0 STARLINK-4661,1 53732U 22107AJ  23171.62655859  .00001019  00000-0  82059-4 0  9991,2 53732  53.2159  32.2330 0000895  77.9883 282.1209 15.08850886 44038,6917.847,95.437,540.331,539.093,0.0
53732.0,STARLINK-4661,PAYLOAD,2023-06-20 19:48:23,15.08851912,9.62e-05,53.2165,31.3406,86.9195,273.1908,0.00014789,2.067e-05,0.0,0 STARLINK-4661,1 53732U 22107AJ  23171.82527746  .00002067  00000-0  14789-3 0  9994,2 53732  53.2165  31.3406 0000962  86.9195 273.1908 15.08851912 44666,6917.844,95.437,540.374,539.043,0.0
53732.0,STARLINK-4661,PAYLOAD,2023-06-21 00:34:33,15.08851738,9.59e-05,53.2166,30.4489,85.9496,274.1606,0.0001929,2.785e-05,0.0,0 STARLINK-4661,1 53732U 22107AJ  23172.02399678  .00002785  00000-0  19290-3 0  9997,2 53732  53.2166  30.4489 0000959  85.9496 274.1606 15.08851738 44692,6917.845,95.437,540.373,539.046,0.0
53732.0,STARLINK-4661,PAYLOAD,2023-06-21 18:03:48,15.08837527,0.0001085,53.217,27.1766,107.4193,252.6917,5.5607e-05,5.97e-06,0.0,0 STARLINK-4661,1 53732U 22107AJ  23172.75264037  .00000597  00000-0  55607-4 0  9999,2 53732  53.2170  27.1766 0001085 107.4193 252.6917 15.08837527 44206,6917.888,95.438,540.504,539.002,0.0
53732.0,STARLINK-4661,PAYLOAD,2023-06-21 19:39:11,15.08842077,0.0001089,53.2172,26.8793,102.5276,257.5838,-1.2499e-05,-4.87e-06,0.0,0 STARLINK-4661,1 53732U 22107AJ  23172.81887916 -.00000487  00000-0 -12499-4 0  9995,2 53732  53.2172  26.8793 0001089 102.5276 257.5838 15.08842077 44815,6917.874,95.437,540.492,538.986,0.0
53732.0,STARLINK-4661,PAYLOAD,2023-06-23 00:16:07,15.08847419,9.71e-05,53.2165,21.5293,84.1931,275.9171,0.00020811,3.026e-05,0.0,0 STARLINK-4661,1 53732U 22107AJ  23174.01119887  .00003026  00000-0  20811-3 0  9990,2 53732  53.2165  21.5293 0000971  84.1931 275.9171 15.08847419 44398,6917.858,95.437,540.394,539.051,0.0
53732.0,STARLINK-4661,PAYLOAD,2023-06-23 17:45:22,15.08834006,0.0001013,53.2171,18.258,86.3216,273.7892,-4.4052e-05,-9.89e-06,0.0,0 STARLINK-4661,1 53732U 22107AJ  23174.73984550 -.00000989  00000-0 -44052-4 0  9997,2 53732  53.2171  18.2580 0001013  86.3216 273.7892 15.08834006 44502,6917.899,95.438,540.464,539.063,0.0
53732.0,STARLINK-4661,PAYLOAD,2023-06-24 23:57:41,15.08848286,0.0001081,53.2165,12.6074,78.8215,281.2898,0.00013606,1.879e-05,0.0,0 STARLINK-4661,1 53732U 22107AJ  23175.99840032  .00001879  00000-0  13606-3 0  9999,2 53732  53.2165  12.6074 0001081  78.8215 281.2898 15.08848286 44696,6917.855,95.437,540.468,538.972,0.0
53732.0,STARLINK-4661,PAYLOAD,2023-06-25 06:19:14,15.0884128,9.04e-05,53.2159,11.4168,87.8371,272.2725,5.3905e-05,5.7e-06,0.0,0 STARLINK-4661,1 53732U 22107AJ  23176.26336343  .00000570  00000-0  53905-4 0  9999,2 53732  53.2159  11.4168 0000904  87.8371 272.2725 15.08841280 44737,6917.876,95.437,540.367,539.116,0.0
53732.0,STARLINK-4661,PAYLOAD,2023-06-26 06:10:02,15.08830968,0.0001311,53.2181,6.9586,79.2742,280.8397,-4.1379e-05,-9.46e-06,0.0,0 STARLINK-4661,1 53732U 22107AJ  23177.25697267 -.00000946  00000-0 -41379-4 0  9995,2 53732  53.2181   6.9586 0001311  79.2742 280.8397 15.08830968 44882,6917.908,95.438,540.68,538.866,0.0
53732.0,STARLINK-4661,PAYLOAD,2023-06-26 18:53:07,15.08838129,0.0001024,53.2172,4.5782,87.2372,272.8737,4.4841e-05,4.26e-06,0.0,0 STARLINK-4661,1 53732U 22107AJ  23177.78689073  .00000426  00000-0  44841-4 0  9997,2 53732  53.2172   4.5782 0001024  87.2372 272.8737 15.08838129 44968,6917.886,95.438,540.459,539.043,0.0
53732.0,STARLINK-4661,PAYLOAD,2023-06-27 20:19:17,15.08850557,0.0001065,53.2175,359.8216,81.1708,278.9405,0.00035253,5.329e-05,0.0,0 STARLINK-4661,1 53732U 22107AJ  23178.84672926  .00005329  00000-0  35253-3 0  9997,2 53732  53.2175 359.8216 0001065  81.1708 278.9405 15.08850557 45127,6917.848,95.437,540.45,538.976,0.0
53732.0,STARLINK-4661,PAYLOAD,2023-06-28 16:59:18,15.08843205,0.0001127,53.2173,355.9556,80.7558,279.3562,0.00016774,2.383e-05,0.0,0 STARLINK-4661,1 53732U 22107AJ  23179.70785160  .00002383  00000-0  16774-3 0  9992,2 53732  53.2173 355.9556 0001127  80.7558 279.3562 15.08843205 45251,6917.871,95.437,540.515,538.956,0.0
53732.0,STARLINK-4661,PAYLOAD,2023-06-30 15:05:29,15.08835964,0.0001064,53.2189,347.3371,99.7698,260.3415,-4.277e-06,-3.56e-06,0.0,0 STARLINK-4661,1 53732U 22107AJ  23181.62881244 -.00000356  00000-0 -42770-5 0  9993,2 53732  53.2189 347.3371 0001064  99.7698 260.3415 15.08835964 45545,6917.893,95.438,540.494,539.022,0.0
53732.0,STARLINK-4661,PAYLOAD,2023-07-01 18:07:02,15.08840748,0.0001241,53.2187,342.2795,114.4066,245.7056,5.165e-05,5.34e-06,0.0,0 STARLINK-4661,1 53732U 22107AJ  23182.75489445  .00000534  00000-0  51650-4 0  9997,2 53732  53.2187 342.2795 0001241 114.4066 245.7056 15.08840748 45711,6917.878,95.438,540.602,538.885,0.0
53732.0,STARLINK-4661,PAYLOAD,2023-07-02 22:43:58,15.08848333,0.0001044,53.218,336.9246,92.1258,267.9854,0.00015256,2.142e-05,0.0,0 STARLINK-4661,1 53732U 22107AJ  23183.94720851  .00002142  00000-0  15256-3 0  9996,2 53732  53.2180 336.9246 0001044  92.1258 267.9854 15.08848333 45890,6917.855,95.437,540.442,538.998,0.0
53732.0,STARLINK-4661,PAYLOAD,2023-07-03 16:13:13,15.08842178,0.0001218,53.2189,333.6542,102.6558,257.457,5.7973e-05,6.35e-06,0.0,0 STARLINK-4661,1 53732U 22107AJ  23184.67585511  .00000635  00000-0  57973-4 0  9997,2 53732  53.2189 333.6542 0001218 102.6558 257.4570 15.08842178 46009,6917.874,95.437,540.581,538.896,0.0
